AALTO-1                 
1 42775U 17036L   24121.54205981  .00058935  00000+0  74658-3 0  9998
2 42775  97.1108 150.8626 0005017  46.7651 313.4024 15.59281668381665
URSA MAIOR              
1 42776U 17036M   24121.32643772  .00125928  00000+0  98384-3 0  9998
2 42776  97.1068 154.0980 0002134  53.4692 306.6768 15.71261279381846
CICERO 6                
1 42793U 17036AE  24121.61699411  .00190662  00000+0  11383-2 0  9990
2 42793  97.0922 158.6554 0001201 106.5555 253.5843 15.77351837382270
CORVUS BC2              
1 42846U 17042X   24121.47970966  .00004107  00000+0  35935-3 0  9995
2 42846  97.3766 309.2557 0007369 208.5633 151.5187 14.97223536370300
CORVUS BC1              
1 42847U 17042Y   24121.51241871  .00003472  00000+0  30340-3 0  9996
2 42847  97.3742 309.6829 0007680 211.9064 148.1695 14.97367100370327
MIRATA                  
1 43015U 17073C   24121.58808090  .00020248  00000+0  99336-3 0  9997
2 43015  97.6013   6.9464 0177946  63.7134 298.2253 15.05229949349168
MAKERSAT 0              
1 43016U 17073D   24121.58456013  .00012363  00000+0  71794-3 0  9999
2 43016  97.5872   1.9228 0201985  82.6544 279.7584 14.96587782348790
CORVUS BC3              
1 43118U 18004H   24121.46612445  .00161692  00000+0  10391-2 0  9992
2 43118  97.2866 205.7984 0000712  27.1972 332.9330 15.75748249351374
GOMX-4B                 
1 43196U 18015E   24121.40112503  .00043741  00000+0  59083-3 0  9990
2 43196  97.6071 291.5754 0008751 135.6186 224.5772 15.57605990348077
GOMX-4A                 
1 43197U 18015F   24121.57632889  .00071085  00000+0  69116-3 0  9993
2 43197  97.5985 296.1657 0006873 127.8610 232.3272 15.66046756348400
CICERO 10               
1 43690U 18088A   24121.52215699  .00090876  00000+0  84574-3 0  9996
2 43690  85.0166 213.5082 0006143 135.1506 225.0258 15.67062842304716
PROXIMA I               
1 43694U 18088E   24121.22943249  .00386876  55014-4  11966-2 0  9998
2 43694  85.0043 206.7351 0002894 258.8366 101.2588 15.91665092305178
PROXIMA II              
1 43696U 18088G   24121.51454097  .00321482  36102-4  11012-2 0  9991
2 43696  85.0054 206.7148 0002362 258.9886 101.1127 15.89643035305194
SIRION PATHFINDER-2     
1 43759U 18099B   24121.40872779  .00004381  00000+0  33699-3 0  9997
2 43759  97.5339 178.9115 0014728  92.9871 267.3040 15.02112726295337
CORVUS BC4              
1 43767U 18099K   24121.62103552  .00004876  00000+0  38141-3 0  9992
2 43767  97.5200 176.4629 0009840 153.0052 207.1686 15.01465724295252
MOVE-II                 
1 43780U 18099Y   24121.39695873  .00015510  00000+0  86608-3 0  9991
2 43780  97.5241 184.8964 0008434 140.2833 219.9018 15.13586630295691
SPACEBEE-7              
1 43816U 18099BL  24121.45358326  .00011573  00000+0  71425-3 0  9993
2 43816  97.5515 185.7778 0011547  96.0162 264.2384 15.10011949295209
SPACEBEE-6              
1 43818U 18099BN  24121.14730695  .00025114  00000+0  11708-2 0  9997
2 43818  97.5435 190.0756 0009837 104.4515 255.7812 15.19821465295608
SHIELDS 1               
1 43850U 18104B   24121.59649263  .00011258  00000+0  31792-3 0  9999
2 43850  85.0219 315.3860 0009287 245.3918 114.6365 15.36175290298858
SONATE                  
1 44400U 19038Q   24121.49109926  .00015975  00000+0  51902-3 0  9999
2 44400  97.7134 113.5404 0014034 273.9062  86.0574 15.31917828266777
LUCKY-7                 
1 44406U 19038W   24121.48238178  .00027751  00000+0  69136-3 0  9999
2 44406  97.7042 117.0003 0011150 253.1440 106.8583 15.40146555267011
BEESAT 9                
1 44412U 19038AC  24121.53611810  .00203138  00000+0  13746-2 0  9990
2 44412  97.6798 125.0585 0008167 186.5411 173.5747 15.74395380267281
JAISAT-1                
1 44419U 19038F   24121.57283353  .00174029  00000+0  12822-2 0  9998
2 44419  97.6790 126.0768 0007739 185.8586 174.2588 15.72481777267660
DUCHIFAT-3              
1 44854U 19089C   24120.90039314  .00013176  00000+0  70146-3 0  9998
2 44854  36.9584 341.8113 0007300  32.9114 327.2086 15.14615217240875
M2 PATHFINDER           
1 45727U 20037E   24121.45925645  .00002670  00000+0  23877-3 0  9991
2 45727  97.7764 298.1666 0009992 285.7365  74.2754 14.96706408208802
NETSAT-4                
1 46504U 20068U   24121.50542897  .00009102  00000+0  50441-3 0  9993
2 46504  97.8028  77.4100 0011081 154.5678 205.6100 15.13985784196956
NETSAT-3                
1 46505U 20068V   24121.40691885  .00008303  00000+0  46705-3 0  9995
2 46505  97.8004  76.8743 0010066 161.2894 198.8708 15.13491247196935
NETSAT-1                
1 46506U 20068W   24121.40810851  .00006909  00000+0  40507-3 0  9996
2 46506  97.8027  76.4518 0008355 170.0763 190.0633 15.12080593196903
NETSAT-2                
1 46507U 20068X   24121.32146934  .00008488  00000+0  47219-3 0  9993
2 46507  97.8015  76.8700 0007611 172.5266 187.6079 15.13902494196873
WILDTRACKCUBE-SIMBA     
1 47941U 21022K   24121.59917400  .00011884  00000+0  55498-3 0  9992
2 47941  97.4649  18.8313 0014246 316.6369  43.3744 15.19880295171238
BEESAT-6                
1 47957U 21022AB  24120.99189283  .00102609  00000+0  16587-2 0  9993
2 47957  97.4450  26.9982 0002770 247.0098 113.0863 15.52485186171540
SMOG-1                  
1 47964U 21022AJ  24121.48027834  .00088233  00000+0  14626-2 0  9997
2 47964  97.4676  30.5796 0004651 223.1572 136.9316 15.51829557170802
BCCSAT-1                
1 48041U 21022AK  24121.52740935  .00049587  00000+0  11826-2 0  9991
2 48041  97.4668  27.3346 0004367 249.0067 111.0713 15.41395424170574
BEESAT-5                
1 48083U 21022AM  24121.46068317  .00161721  00000+0  19431-2 0  9992
2 48083  97.4209  28.5226 0002964 187.7393 172.3818 15.60323985170864
BEESAT-7                
1 48084U 21022AN  24120.99038748  .00087756  00000+0  16276-2 0  9994
2 48084  97.4631  27.2281 0005004 259.2329 100.8358 15.48638643170279
BEESAT-8                
1 48085U 21022AP  24121.44772920  .00022775  00000+0  79777-3 0  9999
2 48085  97.4780  23.1378 0009977 301.6074  58.4191 15.29445130170571
LEDSAT                  
1 49069U 21073D   24121.45027868  .00013855  00000+0  58944-3 0  9995
2 49069  97.4393 192.9589 0021165  93.6195 266.7462 15.22918007149187
SITRO-AIS 5 (KATYS)     
1 57176U 23091L   24121.58260655  .00005968  00000+0  39602-3 0  9998
2 57176  97.6164 174.1959 0016408 284.2891  75.6515 15.07514269 46324
SITRO-AIS 6 (CHIRKIN)   
1 57192U 23091AC  24121.56968816  .00007262  00000+0  48007-3 0  9996
2 57192  97.6161 174.2045 0016374 284.0265  75.9142 15.07576034 46328
SITRO-AIS 8 (ANOKHIN)   
1 57193U 23091AD  24121.61302087  .00007220  00000+0  47412-3 0  9998
2 57193  97.6169 174.2940 0015866 285.1076  74.8397 15.07833172 46338
SITRO-AIS 7 (FARTUSHNIY)
1 57194U 23091AE  24121.57337129  .00007045  00000+0  46641-3 0  9997
2 57194  97.6159 174.1940 0016226 284.6788  75.2641 15.07534910 46326
SITRO-AIS 10 (BURDAEV)  
1 57199U 23091AK  24121.57269606  .00007826  00000+0  49087-3 0  9990
2 57199  97.6176 175.0167 0011186 271.8717  88.1231 15.09545814 46371
SITRO-AIS 9 (SHCHUKIN)  
1 57201U 23091AM  24121.57059914  .00008062  00000+0  50565-3 0  9999
2 57201  97.6172 174.9994 0011151 271.7721  88.2230 15.09535280 46379
SITRO-AIS 12 (SMIRENNIY)
1 57204U 23091AQ  24121.60520951  .00007458  00000+0  46580-3 0  9990
2 57204  97.6187 175.1460 0010840 264.9919  95.0073 15.09721731 46386
SITRO-AIS 11 (SHEFFER)  
1 57208U 23091AU  24121.59344582  .00007080  00000+0  44149-3 0  9996
2 57208  97.6182 175.1520 0010746 265.1938  94.8064 15.09798588 46382
SITRO-AIS 29            
1 59052U 24039B   24121.57465269  .00020136  00000+0  79615-3 0  9995
2 59052  97.3896  84.0599 0019972  33.4013 326.8480 15.25324536  9334
SITRO-AIS 30            
1 59053U 24039C   24121.57398721  .00019664  00000+0  77705-3 0  9996
2 59053  97.3895  84.0585 0020081  34.1143 326.1381 15.25345991  9324
SITRO-AIS 31            
1 59054U 24039D   24121.57062309  .00019836  00000+0  78162-3 0  9996
2 59054  97.3896  84.0632 0019938  34.1370 326.1146 15.25441736  9345
SITRO-AIS 33            
1 59055U 24039E   24121.56656207  .00020084  00000+0  78868-3 0  9992
2 59055  97.3898  84.0705 0019707  35.0376 325.2154 15.25557651  9331
SITRO-AIS 35            
1 59056U 24039F   24121.62997688  .00020156  00000+0  79047-3 0  9991
2 59056  97.3896  84.1373 0019529  34.9527 325.2989 15.25603728  9344
SITRO-AIS 32            
1 59057U 24039G   24121.56682958  .00019957  00000+0  78467-3 0  9998
2 59057  97.3897  84.0696 0019526  35.2343 325.0182 15.25520792  9331
SITRO-AIS 34            
1 59058U 24039H   24121.56542230  .00019815  00000+0  77832-3 0  9995
2 59058  97.3899  84.0726 0019693  35.0766 325.1764 15.25553011  9337
SITRO-AIS 36            
1 59059U 24039J   24121.56179937  .00019615  00000+0  76834-3 0  9995
2 59059  97.3897  84.0764 0019245  35.4470 324.8043 15.25654935  9330
SITRO-AIS 49            
1 59060U 24039K   24121.56109241  .00019945  00000+0  78126-3 0  9990
2 59060  97.3897  84.0771 0019239  35.1637 325.0867 15.25652674  9330
SITRO-AIS 50            
1 59061U 24039L   24121.55786998  .00018720  00000+0  73056-3 0  9997
2 59061  97.3897  84.0815 0019226  35.4543 324.7969 15.25789994  9330
SITRO-AIS 51            
1 59062U 24039M   24121.55692391  .00019756  00000+0  77061-3 0  9991
2 59062  97.3897  84.0828 0019161  35.2532 324.9970 15.25795598  9330
SITRO-AIS 52            
1 59063U 24039N   24121.55383047  .00020473  00000+0  79645-3 0  9995
2 59063  97.3897  84.0868 0018990  35.1952 325.0536 15.25880836  9339
SITRO-AIS 25            
1 59066U 24039R   24121.55535549  .00004181  00000+0  40578-3 0  9995
2 59066  95.4007  65.1252 0175095 146.0812 215.1753 14.82025841  9056
SITRO-AIS 26            
1 59067U 24039S   24121.62218626  .00004335  00000+0  42073-3 0  9991
2 59067  95.4007  65.1710 0174889 145.8780 215.3831 14.82032793  9061
